ORBCOMM FM31 [-]        
1 25981U 99065B   24020.27073243  .00001866  00000+0  70126-3 0  9999
2 25981  45.0245 351.0265 0004839 326.9998  33.0547 14.34799720260139
ORBCOMM FM32 [+]        
1 25982U 99065C   24020.31170149  .00001877  00000+0  71907-3 0  9998
2 25982  45.0176   3.8292 0007077 330.9514  29.0939 14.33775583260782
ORBCOMM FM33 [-]        
1 25983U 99065D   24020.15341984  .00001625  00000+0  58794-3 0  9998
2 25983  45.0289 277.1970 0009508 357.1149 158.7314 14.37209910262041
ORBCOMM FM36 [-]        
1 25984U 99065E   24020.06733605  .00002002  00000+0  74442-3 0  9992
2 25984  45.0414   1.1847 0004725 259.2572 100.7744 14.35081543260497
ORBCOMM FM35 [+]        
1 25985U 99065F   24020.28890384  .00001998  00000+0  74836-3 0  9995
2 25985  45.0411   2.4672 0004544 327.6176  32.4392 14.34734665260921
ORBCOMM FM34 [-]        
1 25986U 99065G   24020.32585445  .00001895  00000+0  71257-3 0  9990
2 25986  45.0406   2.7983 0005522 290.3881  69.6373 14.34690859261041
ORBCOMM FM38 [-]        
1 33060U 08031A   24020.56174012  .00002811  00000+0  42566-3 0  9995
2 33060  48.4401 234.0167 0005197 355.4361   4.6505 14.76781581838723
ORBCOMM FM41 [-]        
1 33061U 08031B   24020.00517119  .00002618  00000+0  40093-3 0  9992
2 33061  48.4434 243.0137 0004269 337.2276 165.1247 14.76522167838144
ORBCOMM FM39 [-]        
1 33063U 08031D   24020.05767549  .00002595  00000+0  40677-3 0  9995
2 33063  48.4407 270.5019 0007405 314.6764  45.3545 14.75525488837772
ORBCOMM FM40 [-]        
1 33065U 08031F   24019.87421583  .00003017  00000+0  45313-3 0  9992
2 33065  48.4417 251.1597 0006855 340.5188 112.8009 14.76929124838454
VESSELSAT 1 [-]         
1 37840U 11058C   24020.20005898  .00000466  00000+0  11017-3 0  9995
2 37840  19.9636 323.4000 0013610 293.8367  66.0611 14.11104977633613
ORBCOMM FM109 [+]       
1 40086U 14040A   24020.16470992  .00001511  00000+0  37583-3 0  9999
2 40086  47.0037 280.2624 0001539 116.5236 243.5807 14.56237439506090
ORBCOMM FM107 [+]       
1 40087U 14040B   24020.13026730  .00001348  00000+0  33940-3 0  9995
2 40087  47.0061 281.3717 0000956  58.5059 301.5919 14.56234902506162
ORBCOMM FM106 [-]       
1 40088U 14040C   24020.43115670  .00002515  00000+0  48115-3 0  9998
2 40088  47.0592 141.2346 0018801 206.2055 153.7885 14.66488139507995
ORBCOMM FM111 [-]       
1 40089U 14040D   24020.07008528  .00003938  00000+0  52597-3 0  9991
2 40089  47.0057  56.9757 0034573 261.8215  97.8758 14.80845728513899
ORBCOMM FM103 [+]       
1 40091U 14040F   24020.08487784  .00001214  00000+0  30940-3 0  9993
2 40091  47.0061 281.9214 0001500  72.1424 287.9624 14.56227147489128
ORBCOMM FM114 [+]       
1 41179U 15081A   24019.84485006  .00001797  00000+0  43992-3 0  9991
2 41179  47.0010 192.3694 0001757 167.3482 192.7447 14.56224588429500
ORBCOMM FM119 [-]       
1 41180U 15081B   24020.56812638  .00001504  00000+0  37450-3 0  9997
2 41180  47.0013  98.1550 0002191 237.6685 122.3988 14.56220135430817
ORBCOMM FM105 [-]       
1 41181U 15081C   24020.51241911  .00000676  00000+0  24071-3 0  9997
2 41181  47.0023  55.2537 0002044 207.6480 152.4292 14.44192641426471
ORBCOMM FM110 [+]       
1 41182U 15081D   24020.57653058  .00001817  00000+0  44451-3 0  9995
2 41182  47.0001 188.3405 0001808 308.3219  51.7503 14.56220989429431
ORBCOMM FM112 [+]       
1 41184U 15081F   24020.34040151  .00001986  00000+0  48246-3 0  9999
2 41184  46.9985  98.4694 0001957 226.6811 133.3911 14.56213359430725
ORBCOMM FM113 [+]       
1 41185U 15081G   24020.31714804  .00001898  00000+0  46263-3 0  9999
2 41185  47.0004  98.8229 0001835 244.0247 116.0448 14.56208625430701
ORBCOMM FM115 [+]       
1 41186U 15081H   24019.23587453  .00001810  00000+0  40645-3 0  9999
2 41186  46.9995 324.2967 0001085 259.6227 100.4537 14.60283623432457
ORBCOMM FM108 [+]       
1 41187U 15081J   24019.99615889  .00001846  00000+0  45122-3 0  9992
2 41187  47.0057  11.4908 0001417 108.9781 251.1257 14.56196714431809
ORBCOMM FM117 [+]       
1 41188U 15081K   24019.96213677  .00001866  00000+0  45575-3 0  9993
2 41188  47.0016  10.5838 0001971 131.8777 228.2276 14.56200872431843
ORBCOMM FM116 [+]       
1 41189U 15081L   24020.56912421  .00002124  00000+0  51337-3 0  9996
2 41189  47.0011  97.5392 0003098 233.7157 126.3442 14.56203861430747
